1 39414U 98067DC  14018.12234954  .00077211  00000-0  95151-3 0  1809
2 39414 051.6484 121.2650 0005361 297.1276 126.2059 15.59498273  9172
1 39414U 98067DC  14018.44789541  .00072107  00000-0  88901-3 0  1816
2 39414 051.6497 119.6311 0003855 293.8512 158.3201 15.59522788  9223
1 39414U 98067DC  14018.70921212  .00070538  00000-0  86885-3 0  1824
2 39414 051.6498 118.3145 0004655 299.7172 180.5287 15.59553236  9268
1 39414U 98067DC  14019.14899155  .00070265  00000-0  86360-3 0  1839
2 39414 051.6502 116.1047 0004575 300.2785 130.7454 15.59612939  9337
1 39414U 98067DC  14019.47464069  .00068488  00000-0  84095-3 0  1845
2 39414 051.6495 114.4704 0004801 301.6772 158.9311 15.59647797  9381
1 39414U 98067DC  14019.73733870  .00066571  00000-0  81692-3 0  1855
2 39414 051.6503 113.1512 0004842 302.3545 194.2083 15.59675546  9422
1 39414U 98067DC  14020.11057426  .00066609  00000-0  81583-3 0  1867
2 39414 051.6498 111.2727 0004890 304.5710 129.0749 15.59724885  9485
1 39414U 98067DC  14020.49903064  .00065895  00000-0  80578-3 0  1876
2 39414 051.6495 109.3230 0004789 308.2263 148.0749 15.59772478  9549
1 39414U 98067DC  14020.69648595  .00065876  00000-0  80476-3 0  1880
2 39414 051.6498 108.3311 0004879 309.8074 175.9860 15.59798206  9571
1 39414U 98067DC  14021.19342072  .00066007  00000-0  80432-3 0  1897
2 39414 051.6499 105.8324 0004848 311.4485 086.6865 15.59863638  9653
1 39414U 98067DC  14021.46268194  .00065837  00000-0  80124-3 0  1909
2 39414 051.6495 104.4790 0004838 313.7208 157.4703 15.59897783  9698
1 39414U 98067DC  14022.09602478  .00066071  00000-0  80150-3 0  1917
2 39414 051.6496 101.2934 0004827 316.1739 114.1018 15.59981427  9797
1 39414U 98067DC  14022.48603304  .00067623  00000-0  81808-3 0  1925
2 39414 051.6489 099.3308 0005066 318.9861 143.0899 15.60042017  9853
1 39414U 98067DC  14022.68419021  .00067979  00000-0  82145-3 0  1938
2 39414 051.6492 098.3336 0004969 320.2516 175.4605 15.60070164  9882
1 39414U 98067DC  14023.05722701  .00068208  00000-0  82260-3 0  1947
2 39414 051.6493 096.4575 0004800 320.7838 111.4294 15.60121358  9946
1 39414U 98067DC  14023.44451259  .00073264  00000-0  87989-3 0  1959
2 39414 051.6496 094.5087 0004447 315.5295 133.4759 15.60202494 10002
1 39414U 98067DC  14023.64287159  .00074222  00000-0  89006-3 0  1965
2 39414 051.6487 093.5113 0004508 319.8667 164.0330 15.60235794 10036
1 39414U 98067DC  14024.08234075  .00075124  00000-0  89838-3 0  1979
2 39414 051.6490 091.3015 0004371 322.2344 111.8027 15.60304273 10105
1 39414U 98067DC  14024.40864007  .00080818  00000-0  96244-3 0  1985
2 39414 051.6487 089.6601 0004832 329.1886 139.0430 15.60380176 10152
1 39414U 98067DC  14024.67002711  .00081434  00000-0  96801-3 0  1995
2 39414 051.6479 088.3462 0004869 330.6909 166.8502 15.60424399 10195
1 39414U 98067DC  14025.10890241  .00081564  00000-0  96695-3 0  2005
2 39414 051.6477 086.1367 0004649 330.8185 113.8162 15.60495159 10261
1 39414U 98067DC  14025.43191791  .00081530  00000-0  96454-3 0  2012
2 39414 051.6486 084.5097 0005370 335.4295 125.0526 15.60545484 10310
1 39414U 98067DC  14025.62977207  .00081647  00000-0  96460-3 0  2024
2 39414 051.6482 083.5135 0005913 337.4149 155.3479 15.60577283 10349
1 39414U 98067DC  14026.18953713  .00080479  00000-0  94795-3 0  2034
2 39414 051.6476 080.7022 0006150 344.4327 055.2784 15.60660487 10432
1 39414U 98067DC  14026.45780818  .00078632  00000-0  92552-3 0  2046
2 39414 051.6486 079.3503 0005246 344.0980 123.8712 15.60695189 10471
1 39414U 98067DC  14026.58848262  .00078476  00000-0  92299-3 0  2053
2 39414 051.6485 078.6920 0005339 343.9568 138.6994 15.60714890 10497
1 39414U 98067DC  14027.16152505  .00078723  00000-0  92267-3 0  2067
2 39414 051.6484 075.8064 0005291 346.1278 118.4498 15.60804827 10589
1 39414U 98067DC  14027.55389512  .00078442  00000-0  91735-3 0  2078
2 39414 051.6488 073.8321 0005159 348.2419 162.5313 15.60864694 10641
1 39414U 98067DC  14027.61553046  .00078563  00000-0  91839-3 0  2080
2 39414 051.6489 073.5221 0005132 348.8807 148.4625 15.60874882 10656
1 39414U 98067DC  14028.12064146  .00079059  00000-0  92121-3 0  2092
2 39414 051.6488 070.9776 0005217 350.8150 106.7936 15.60955743 10736
1 39414U 98067DC  14028.44741755  .00079722  00000-0  92690-3 0  2105
2 39414 051.6489 069.3313 0005157 352.2815 142.8876 15.61009507 10781
1 39414U 98067DC  14028.57482080  .00079914  00000-0  92837-3 0  2119
2 39414 051.6492 068.6906 0005029 353.4556 138.1589 15.61030548 10809
1 39414U 98067DC  14029.13440086  .00080665  00000-0  93364-3 0  2124
2 39414 051.6489 065.8726 0005007 355.1882 043.3025 15.61122632 10898
1 39414U 98067DC  14029.47267752  .00081816  00000-0  94458-3 0  2133
2 39414 051.6480 064.1671 0005024 357.6482 143.2887 15.61181689 10941
1 39414U 98067DC  14029.60098987  .00082043  00000-0  94634-3 0  2140
2 39414 051.6475 063.5194 0005186 358.5574 144.0155 15.61203377 10967
1 39414U 98067DC  14030.09344454  .00082535  00000-0  94895-3 0  2154
2 39414 051.6478 061.0381 0005055 000.7171 031.5371 15.61285257 11042
1 39414U 98067DC  14030.36567816  .00087503  00000-0  10017-2 0  2167
2 39414 051.6479 059.6632 0007113 003.0142 120.5140 15.61357716 11083
1 39414U 98067DC  14030.55977705  .00088050  00000-0  10065-2 0  2172
2 39414 051.6478 058.6849 0007171 004.8075 130.4764 15.61393824 11115
1 39414U 98067DC  14031.11902200  .00090706  00000-0  10324-2 0  2183
2 39414 051.6496 055.8720 0005430 008.8609 032.2156 15.61505435 11202
1 39414U 98067DC  14031.45952130  .00094907  00000-0  10760-2 0  2199
2 39414 051.6481 054.1550 0005649 010.1815 146.3497 15.61584015 11257
1 39414U 98067DC  14031.51814605  .00095033  00000-0  10769-2 0  2202
2 39414 051.6484 053.8603 0005633 010.5782 115.7453 15.61595450 11263
1 39414U 98067DC  14032.07818740  .00094974  00000-0  10720-2 0  2219
2 39414 051.6483 051.0360 0005733 013.6774 023.2489 15.61698784 11354
1 39414U 98067DC  14032.48293874  .00095099  00000-0  10702-2 0  2229
2 39414 051.6482 048.9934 0005867 016.2747 137.7692 15.61773317 11412
1 39414U 98067DC  14033.04917936  .00093680  00000-0  10506-2 0  2231
2 39414 051.6473 046.1373 0005830 017.1695 082.6822 15.61870008 11509
1 39414U 98067DC  14033.44141896  .00091215  00000-0  10211-2 0  2245
2 39414 051.6463 044.1581 0005341 018.2341 128.5663 15.61931238 11566
1 39414U 98067DC  14033.50342380  .00091091  00000-0  10193-2 0  2255
2 39414 051.6466 043.8469 0005598 017.1109 118.5691 15.61941985 11575
1 39414U 98067DC  14034.19757839  .00091477  00000-0  10186-2 0  2261
2 39414 051.6461 040.3475 0005191 019.3006 062.3766 15.62068690 11683
1 39414U 98067DC  14034.46095262  .00092253  00000-0  10249-2 0  2270
2 39414 051.6464 039.0197 0005619 024.7441 099.0346 15.62120848 11720
1 39414U 98067DC  14035.15069044  .00093120  00000-0  10292-2 0  2289
2 39414 051.6467 035.5393 0005617 027.8170 017.5478 15.62249656 11835
1 39414U 98067DC  14035.48682326  .00096807  00000-0  10658-2 0  2291
2 39414 051.6460 033.8449 0006149 024.2688 112.9147 15.62330718 11885
1 39414U 98067DC  14035.85848174  .00097730  00000-0  10726-2 0  2301
2 39414 051.6465 031.9690 0006175 027.0447 041.9507 15.62405985 11947
1 39414U 98067DC  14036.24665922  .00101566  00000-0  11092-2 0  2314
2 39414 051.6480 030.0063 0007519 023.8225 070.1604 15.62504349 12003
1 39414U 98067DC  14036.44528888  .00103426  00000-0  11273-2 0  2324
2 39414 051.6492 029.0051 0006966 026.8028 105.2661 15.62552516 12035
1 39414U 98067DC  14037.20620795  .00107391  00000-0  11625-2 0  2336
2 39414 051.6481 025.1663 0004690 042.5158 053.0249 15.62726408 12158
1 39414U 98067DC  14037.40267938  .00109331  00000-0  11808-2 0  2344
2 39414 051.6481 024.1754 0004886 042.3960 079.2242 15.62775517 12185
1 39414U 98067DC  14037.77549760  .00109802  00000-0  11820-2 0  2358
2 39414 051.6480 022.2920 0004866 043.7607 016.7896 15.62857148 12248
1 39414U 98067DC  14038.16387080  .00112868  00000-0  12094-2 0  2368
2 39414 051.6470 020.3270 0005532 044.9852 042.2522 15.62957782 12302
1 39414U 98067DC  14038.42825929  .00115129  00000-0  12298-2 0  2376
2 39414 051.6480 018.9926 0006052 042.7534 093.1447 15.63025282 12342
1 39414U 98067DC  14038.86669671  .00116281  00000-0  12368-2 0  2383
2 39414 051.6489 016.7781 0005987 047.9705 036.7136 15.63129481 12411
1 39414U 98067DC  14039.19145753  .00120781  00000-0  12788-2 0  2397
2 39414 051.6490 015.1371 0005833 048.1242 065.4670 15.63229749 12465
1 39414U 98067DC  14039.38545456  .00121977  00000-0  12886-2 0  2401
2 39414 051.6493 014.1567 0005830 047.4131 078.6802 15.63280587 12493
1 39414U 98067DC  14039.75779359  .00127167  00000-0  13369-2 0  2418
2 39414 051.6488 012.2768 0005106 059.2074 003.8615 15.63389741 12553
1 39414U 98067DC  14040.14622656  .00132319  00000-0  13837-2 0  2426
2 39414 051.6475 010.3173 0004131 063.2209 027.6374 15.63509121 12619
1 39414U 98067DC  14040.41028153  .00133018  00000-0  13870-2 0  2433
2 39414 051.6472 008.9816 0004139 062.8372 075.3203 15.63579801 12654
1 39414U 98067DC  14040.78166442  .00133618  00000-0  13878-2 0  2442
2 39414 051.6472 007.1029 0004083 066.6681 003.4280 15.63678050 12714
1 39414U 98067DC  14041.10394855  .00139207  00000-0  14379-2 0  2458
2 39414 051.6480 005.4694 0004821 054.2939 031.4076 15.63793065 12764
1 39414U 98067DC  14041.36797544  .00142009  00000-0  14609-2 0  2469
2 39414 051.6481 004.1277 0006213 044.2858 088.8424 15.63876110 12805
1 39414U 98067DC  14042.12768852  .00147441  00000-0  15020-2 0  2478
2 39414 051.6495 000.2923 0004859 082.3124 011.2475 15.64112845 12926
